[
    {
        "Altitude(m)": 612502.188948826,
        "Argument of Periapsis(deg)": 0.0,
        "Eccentricity": 0.0,
        "Inclination(deg)": 60.0,
        "Latitude(deg)": -28.135954834026148,
        "Longitude(deg)": 117.14822765290775,
        "Mean Anomaly(deg)": -32.72730000000001,
        "RAAN(deg)": 235.0,
        "Satellite Name": "Test1 1054",
        "Satellite Number": 1054,
        "Semi-Major Axis(m)": 6980739.136638005,
        "Time(s)": 0
    },
    {
        "Altitude(m)": 612308.6369832873,
        "Argument of Periapsis(deg)": 0.00010418945913296404,
        "Eccentricity": 0.0,
        "Inclination(deg)": 60.0,
        "Latitude(deg)": -27.623010390804513,
        "Longitude(deg)": 117.50170220964382,
        "Mean Anomaly(deg)": -32.10719385453816,
        "RAAN(deg)": 234.99957995086027,
        "Satellite Name": "Test1 1054",
        "Satellite Number": 1054,
        "Semi-Major Axis(m)": 6980739.136638005,
        "Time(s)": 10
    }
]